CCSDS_OMM_VERS = 2.0
CREATION_DATE  = 
ORIGINATOR     = 

OBJECT_NAME    = DELTA 1 R/B
OBJECT_ID      = 1989-089B
CENTER_NAME    = EARTH
REF_FRAME      = TEME
TIME_SYSTEM    = UTC
MEAN_ELEMENT_THEORY = SGP/SGP4

EPOCH          = 2025-10-31T15:07:19.331040
MEAN_MOTION    = 14.50519061
ECCENTRICITY   = .0069411
INCLINATION    = 97.0799
RA_OF_ASC_NODE = 167.5332
ARG_OF_PERICENTER = 169.2053
MEAN_ANOMALY   = 191.0654

EPHEMERIS_TYPE = 0
CLASSIFICATION_TYPE = U
NORAD_CAT_ID   = 20323
ELEMENT_SET_NO = 999
REV_AT_EPOCH   = 87702
BSTAR          = .12261E-3
MEAN_MOTION_DOT = .46E-5
MEAN_MOTION_DDOT = 0

CCSDS_OMM_VERS = 2.0
CREATION_DATE  = 
ORIGINATOR     = 

OBJECT_NAME    = ARIANE 40 R/B
OBJECT_ID      = 1990-005H
CENTER_NAME    = EARTH
REF_FRAME      = TEME
TIME_SYSTEM    = UTC
MEAN_ELEMENT_THEORY = SGP/SGP4

EPOCH          = 2025-10-31T18:19:53.419872
MEAN_MOTION    = 14.39748920
ECCENTRICITY   = .0009278
INCLINATION    = 98.3302
RA_OF_ASC_NODE = 4.1165
ARG_OF_PERICENTER = 227.9435
MEAN_ANOMALY   = 132.0964

EPHEMERIS_TYPE = 0
CLASSIFICATION_TYPE = U
NORAD_CAT_ID   = 20443
ELEMENT_SET_NO = 999
REV_AT_EPOCH   = 87425
BSTAR          = .15102E-3
MEAN_MOTION_DOT = .431E-5
MEAN_MOTION_DDOT = 0

CCSDS_OMM_VERS = 2.0
CREATION_DATE  = 
ORIGINATOR     = 

OBJECT_NAME    = DELTA 2 R/B(1)
OBJECT_ID      = 1990-008B
CENTER_NAME    = EARTH
REF_FRAME      = TEME
TIME_SYSTEM    = UTC
MEAN_ELEMENT_THEORY = SGP/SGP4

EPOCH          = 2025-10-31T05:55:57.902880
MEAN_MOTION    = 15.41360453
ECCENTRICITY   = .0118375
INCLINATION    = 35.6069
RA_OF_ASC_NODE = 294.1149
ARG_OF_PERICENTER = 152.2396
MEAN_ANOMALY   = 208.4717

EPHEMERIS_TYPE = 0
CLASSIFICATION_TYPE = U
NORAD_CAT_ID   = 20453
ELEMENT_SET_NO = 999
REV_AT_EPOCH   = 90606
BSTAR          = .77144E-3
MEAN_MOTION_DOT = .42976E-3
MEAN_MOTION_DDOT = 0

CCSDS_OMM_VERS = 2.0
CREATION_DATE  = 
ORIGINATOR     = 

OBJECT_NAME    = COSMOS 2058
OBJECT_ID      = 1990-010A
CENTER_NAME    = EARTH
REF_FRAME      = TEME
TIME_SYSTEM    = UTC
MEAN_ELEMENT_THEORY = SGP/SGP4

EPOCH          = 2025-10-31T19:36:32.842656
MEAN_MOTION    = 15.10005225
ECCENTRICITY   = .001153
INCLINATION    = 82.4696
RA_OF_ASC_NODE = 174.2659
ARG_OF_PERICENTER = 57.2319
MEAN_ANOMALY   = 303.0019

EPHEMERIS_TYPE = 0
CLASSIFICATION_TYPE = U
NORAD_CAT_ID   = 20465
ELEMENT_SET_NO = 999
REV_AT_EPOCH   = 92278
BSTAR          = .27477E-3
MEAN_MOTION_DOT = .4498E-4
MEAN_MOTION_DDOT = 0

CCSDS_OMM_VERS = 2.0
CREATION_DATE  = 
ORIGINATOR     = 

OBJECT_NAME    = SL-14 R/B
OBJECT_ID      = 1990-010B
CENTER_NAME    = EARTH
REF_FRAME      = TEME
TIME_SYSTEM    = UTC
MEAN_ELEMENT_THEORY = SGP/SGP4

EPOCH          = 2025-10-31T17:20:36.426048
MEAN_MOTION    = 14.83412931
ECCENTRICITY   = .0020013
INCLINATION    = 82.5053
RA_OF_ASC_NODE = 28.4998
ARG_OF_PERICENTER = 9.3513
MEAN_ANOMALY   = 350.8071

EPHEMERIS_TYPE = 0
CLASSIFICATION_TYPE = U
NORAD_CAT_ID   = 20466
ELEMENT_SET_NO = 999
REV_AT_EPOCH   = 90936
BSTAR          = .76141E-4
MEAN_MOTION_DOT = .65E-5
MEAN_MOTION_DDOT = 0

CCSDS_OMM_VERS = 2.0
CREATION_DATE  = 
ORIGINATOR     = 

OBJECT_NAME    = SL-14 R/B
OBJECT_ID      = 1990-018B
CENTER_NAME    = EARTH
REF_FRAME      = TEME
TIME_SYSTEM    = UTC
MEAN_ELEMENT_THEORY = SGP/SGP4

EPOCH          = 2025-10-31T14:47:37.728096
MEAN_MOTION    = 14.81987539
ECCENTRICITY   = .0017138
INCLINATION    = 82.5222
RA_OF_ASC_NODE = 343.7395
ARG_OF_PERICENTER = 152.3155
MEAN_ANOMALY   = 207.8975

EPHEMERIS_TYPE = 0
CLASSIFICATION_TYPE = U
NORAD_CAT_ID   = 20511
ELEMENT_SET_NO = 999
REV_AT_EPOCH   = 90346
BSTAR          = .68531E-4
MEAN_MOTION_DOT = .568E-5
MEAN_MOTION_DDOT = 0

CCSDS_OMM_VERS = 2.0
CREATION_DATE  = 
ORIGINATOR     = 

OBJECT_NAME    = HST
OBJECT_ID      = 1990-037B
CENTER_NAME    = EARTH
REF_FRAME      = TEME
TIME_SYSTEM    = UTC
MEAN_ELEMENT_THEORY = SGP/SGP4

EPOCH          = 2025-10-31T18:51:13.006080
MEAN_MOTION    = 15.27252670
ECCENTRICITY   = .0001996
INCLINATION    = 28.4669
RA_OF_ASC_NODE = 197.8810
ARG_OF_PERICENTER = 121.0910
MEAN_ANOMALY   = 238.9881

EPHEMERIS_TYPE = 0
CLASSIFICATION_TYPE = U
NORAD_CAT_ID   = 20580
ELEMENT_SET_NO = 999
REV_AT_EPOCH   = 75357
BSTAR          = .331E-3
MEAN_MOTION_DOT = .9322E-4
MEAN_MOTION_DDOT = 0

CCSDS_OMM_VERS = 2.0
CREATION_DATE  = 
ORIGINATOR     = 

OBJECT_NAME    = SL-16 R/B
OBJECT_ID      = 1990-046B
CENTER_NAME    = EARTH
REF_FRAME      = TEME
TIME_SYSTEM    = UTC
MEAN_ELEMENT_THEORY = SGP/SGP4

EPOCH          = 2025-10-31T18:06:19.741824
MEAN_MOTION    = 14.14992366
ECCENTRICITY   = .0012735
INCLINATION    = 70.9998
RA_OF_ASC_NODE = 208.6923
ARG_OF_PERICENTER = 148.6022
MEAN_ANOMALY   = 211.5863

EPHEMERIS_TYPE = 0
CLASSIFICATION_TYPE = U
NORAD_CAT_ID   = 20625
ELEMENT_SET_NO = 999
REV_AT_EPOCH   = 83015
BSTAR          = .26345E-4
MEAN_MOTION_DOT = .3E-7
MEAN_MOTION_DDOT = 0

CCSDS_OMM_VERS = 2.0
CREATION_DATE  = 
ORIGINATOR     = 

OBJECT_NAME    = COSMOS 2084
OBJECT_ID      = 1990-055A
CENTER_NAME    = EARTH
REF_FRAME      = TEME
TIME_SYSTEM    = UTC
MEAN_ELEMENT_THEORY = SGP/SGP4

EPOCH          = 2025-10-31T16:53:50.578368
MEAN_MOTION    = 15.04631512
ECCENTRICITY   = .0038769
INCLINATION    = 62.7911
RA_OF_ASC_NODE = 55.1817
ARG_OF_PERICENTER = 169.7552
MEAN_ANOMALY   = 190.4348

EPHEMERIS_TYPE = 0
CLASSIFICATION_TYPE = U
NORAD_CAT_ID   = 20663
ELEMENT_SET_NO = 999
REV_AT_EPOCH   = 91690
BSTAR          = .36258E-3
MEAN_MOTION_DOT = .5001E-4
MEAN_MOTION_DDOT = 0

CCSDS_OMM_VERS = 2.0
CREATION_DATE  = 
ORIGINATOR     = 

OBJECT_NAME    = SL-6 R/B(2)
OBJECT_ID      = 1990-055D
CENTER_NAME    = EARTH
REF_FRAME      = TEME
TIME_SYSTEM    = UTC
MEAN_ELEMENT_THEORY = SGP/SGP4

EPOCH          = 2025-10-31T18:48:42.488640
MEAN_MOTION    = 15.02764375
ECCENTRICITY   = .0010673
INCLINATION    = 62.7848
RA_OF_ASC_NODE = 331.9428
ARG_OF_PERICENTER = 270.9800
MEAN_ANOMALY   = 89.0076

EPHEMERIS_TYPE = 0
CLASSIFICATION_TYPE = U
NORAD_CAT_ID   = 20666
ELEMENT_SET_NO = 999
REV_AT_EPOCH   = 91881
BSTAR          = .23815E-3
MEAN_MOTION_DOT = .3008E-4
MEAN_MOTION_DDOT = 0

CCSDS_OMM_VERS = 2.0
CREATION_DATE  = 
ORIGINATOR     = 

OBJECT_NAME    = SL-8 R/B
OBJECT_ID      = 1990-078B
CENTER_NAME    = EARTH
REF_FRAME      = TEME
TIME_SYSTEM    = UTC
MEAN_ELEMENT_THEORY = SGP/SGP4

EPOCH          = 2025-10-31T16:17:49.652160
MEAN_MOTION    = 14.83799958
ECCENTRICITY   = .038323
INCLINATION    = 82.9090
RA_OF_ASC_NODE = 6.8774
ARG_OF_PERICENTER = 86.4109
MEAN_ANOMALY   = 278.0843

EPHEMERIS_TYPE = 0
CLASSIFICATION_TYPE = U
NORAD_CAT_ID   = 20775
ELEMENT_SET_NO = 999
REV_AT_EPOCH   = 79013
BSTAR          = .52566E-3
MEAN_MOTION_DOT = .17013E-3
MEAN_MOTION_DDOT = 0

CCSDS_OMM_VERS = 2.0
CREATION_DATE  = 
ORIGINATOR     = 

OBJECT_NAME    = SL-8 R/B
OBJECT_ID      = 1991-006B
CENTER_NAME    = EARTH
REF_FRAME      = TEME
TIME_SYSTEM    = UTC
MEAN_ELEMENT_THEORY = SGP/SGP4

EPOCH          = 2025-10-31T15:27:18.885312
MEAN_MOTION    = 13.77480496
ECCENTRICITY   = .0023495
INCLINATION    = 82.9398
RA_OF_ASC_NODE = 266.0280
ARG_OF_PERICENTER = 39.5031
MEAN_ANOMALY   = 133.8937

EPHEMERIS_TYPE = 0
CLASSIFICATION_TYPE = U
NORAD_CAT_ID   = 21088
ELEMENT_SET_NO = 999
REV_AT_EPOCH   = 74630
BSTAR          = .1585E-3
MEAN_MOTION_DOT = .173E-5
MEAN_MOTION_DDOT = 0

