DELTA 1 R/B             
1 20323U 89089B   25304.63008485  .00000460  00000+0  12261-3 0  9996
2 20323  97.0799 167.5332 0069411 169.2053 191.0654 14.50519061877029
ARIANE 40 R/B           
1 20443U 90005H   25304.76381273  .00000431  00000+0  15102-3 0  9997
2 20443  98.3302   4.1165 0009278 227.9435 132.0964 14.39748920874253
DELTA 2 R/B(1)          
1 20453U 90008B   25304.24719795  .00042976  00000+0  77144-3 0  9992
2 20453  35.6069 294.1149 0118375 152.2396 208.4717 15.41360453906060
COSMOS 2058             
1 20465U 90010A   25304.81704679  .00004498  00000+0  27477-3 0  9997
2 20465  82.4696 174.2659 0011530  57.2319 303.0019 15.10005225922780
SL-14 R/B               
1 20466U 90010B   25304.72264382  .00000650  00000+0  76141-4 0  9999
2 20466  82.5053  28.4998 0020013   9.3513 350.8071 14.83412931909367
SL-14 R/B               
1 20511U 90018B   25304.61640889  .00000568  00000+0  68531-4 0  9998
2 20511  82.5222 343.7395 0017138 152.3155 207.8975 14.81987539903463
HST                     
1 20580U 90037B   25304.78556720  .00009322  00000+0  33100-3 0  9993
2 20580  28.4669 197.8810 0001996 121.0910 238.9881 15.27252670753578
SL-16 R/B               
1 20625U 90046B   25304.75439516  .00000003  00000+0  26345-4 0  9994
2 20625  70.9998 208.6923 0012735 148.6022 211.5863 14.14992366830158
COSMOS 2084             
1 20663U 90055A   25304.70405762  .00005001  00000+0  36258-3 0  9993
2 20663  62.7911  55.1817 0038769 169.7552 190.4348 15.04631512916902
SL-6 R/B(2)             
1 20666U 90055D   25304.78382510  .00003008  00000+0  23815-3 0  9999
2 20666  62.7848 331.9428 0010673 270.9800  89.0076 15.02764375918817
SL-8 R/B                
1 20775U 90078B   25304.67904690  .00017013  00000+0  52566-3 0  9998
2 20775  82.9090   6.8774 0383230  86.4109 278.0843 14.83799958790135
SL-8 R/B                
1 21088U 91006B   25304.64396858  .00000173  00000+0  15850-3 0  9990
2 21088  82.9398 266.0280 0023495  39.5031 133.8937 13.77480496746301
